[{"OBJECT_NAME":"STARLINK-3914","OBJECT_ID":"2022-049AR","EPOCH":"2026-03-09T05:33:37.799136","MEAN_MOTION":15.08836745,"ECCENTRICITY":0.00014321,"INCLINATION":53.2182,"RA_OF_ASC_NODE":51.1733,"ARG_OF_PERICENTER":93.4869,"MEAN_ANOMALY":266.6287,"EPHEMERIS_TYPE":0,"CLASSIFICATION_TYPE":"U","NORAD_CAT_ID":52490,"ELEMENT_SET_NO":999,"REV_AT_EPOCH":21232,"BSTAR":1.6192693e-5,"MEAN_MOTION_DOT":-3.0e-7,"MEAN_MOTION_DDOT":0},{"OBJECT_NAME":"UNKNOWN","OBJECT_ID":"","EPOCH":"2026-03-07T17:21:07.805664","MEAN_MOTION":15.09455608,"ECCENTRICITY":0.0009057,"INCLINATION":82.8696,"RA_OF_ASC_NODE":177.6495,"ARG_OF_PERICENTER":167.3062,"MEAN_ANOMALY":192.8398,"EPHEMERIS_TYPE":0,"CLASSIFICATION_TYPE":"U","NORAD_CAT_ID":87725,"ELEMENT_SET_NO":999,"REV_AT_EPOCH":64668,"BSTAR":0.0060116,"MEAN_MOTION_DOT":0.00097492,"MEAN_MOTION_DDOT":0}]
